0 SCOUT G-1 DEB
1 35528U 88074R   13278.52219599  .00000698  00000-0  10137-2 0   968
2 35528 089.9260 014.3144 0103363 139.5305 221.3503 13.51941373281147
0 SCOUT G-1 DEB
1 35528U 88074R   13283.03694556  .00000700  00000-0  10153-2 0   973
2 35528 089.9256 014.2771 0105150 126.4050 234.6878 13.51947625281750
0 SCOUT G-1 DEB
1 35528U 88074R   13285.99741917  .00000702  00000-0  10188-2 0   985
2 35528 089.9223 014.2433 0105401 117.9446 243.2462 13.51951798282158
0 SCOUT G-1 DEB
1 35528U 88074R   13288.51380837  .00000719  00000-0  10442-2 0   998
2 35528 089.9223 014.2240 0104877 110.7529 250.4976 13.51955886282492
